[{"OBJECT_NAME":"STARLINK-11192 [DTC]","OBJECT_ID":"2024-133H","EPOCH":"2026-03-09T11:38:35.734848","MEAN_MOTION":15.69706854,"ECCENTRICITY":0.0001229,"INCLINATION":53.157,"RA_OF_ASC_NODE":147.1071,"ARG_OF_PERICENTER":92.9095,"MEAN_ANOMALY":267.2063,"EPHEMERIS_TYPE":0,"CLASSIFICATION_TYPE":"U","NORAD_CAT_ID":60308,"ELEMENT_SET_NO":999,"REV_AT_EPOCH":9370,"BSTAR":2.5682282e-5,"MEAN_MOTION_DOT":2.523e-5,"MEAN_MOTION_DDOT":0},{"OBJECT_NAME":"FLOCK 4BE-33","OBJECT_ID":"2024-149AL","EPOCH":"2026-03-09T17:20:04.915968","MEAN_MOTION":15.65897746,"ECCENTRICITY":0.00075386,"INCLINATION":97.3675,"RA_OF_ASC_NODE":153.2317,"ARG_OF_PERICENTER":245.686,"MEAN_ANOMALY":114.3613,"EPHEMERIS_TYPE":0,"CLASSIFICATION_TYPE":"U","NORAD_CAT_ID":60502,"ELEMENT_SET_NO":999,"REV_AT_EPOCH":8711,"BSTAR":0.0014774544,"MEAN_MOTION_DOT":0.00152703,"MEAN_MOTION_DDOT":0}]
